{"type": "FeatureCollection", "features": [ {"type": "Feature", "properties": {"norad_id": 66707, "name": "FLOCK 4H-4", "group": "last-30-days", "lat": 76.86966907641644, "lon": -73.59535213261371, "alt_km": 508.6057790696914, "timestamp": "2025-12-26T19:22:37.605051+00:00", "meta": {"OBJECT_NAME": "FLOCK 4H-4", "OBJECT_ID": "2025-276AT", "EPOCH": "2025-12-26T14:11:08.301984", "MEAN_MOTION": 15.17253363, "ECCENTRICITY": 0.0003676, "INCLINATION": 97.4422, "RA_OF_ASC_NODE": 72.1101, "ARG_OF_PERICENTER": 233.5448, "MEAN_ANOMALY": 126.5447, "EPHEMERIS_TYPE": 0, "CLASSIFICATION_TYPE": "U", "NORAD_CAT_ID": 66707, "ELEMENT_SET_NO": 999, "REV_AT_EPOCH": 422, "BSTAR": 0.00034772509, "MEAN_MOTION_DOT": 6.857e-05, "MEAN_MOTION_DDOT": 0}, "tle": {"line1": "1 66707U 25276AT  25360.59106831  .00006857  00000+0  34773-3 0  9999", "line2": "2 66707  97.4422  72.1101 0003676 233.5448 126.5447 15.17253363  4222"}}, "geometry": {"type": "Point", "coordinates": [-73.59535213261371, 76.86966907641644]}}, {"type": "Feature", "properties": {"norad_id": 66708, "name": "FLOCK 4H-5", "group": "last-30-days", "lat": -16.910462019706625, "lon": -109.92956937078357, "alt_km": 515.9318764709933, "timestamp": "2025-12-26T19:22:37.605061+00:00", "meta": {"OBJECT_NAME": "FLOCK 4H-5", "OBJECT_ID": "2025-276AU", "EPOCH": "2025-12-26T13:46:01.222464", "MEAN_MOTION": 15.1821274, "ECCENTRICITY": 0.00013065, "INCLINATION": 97.4376, "RA_OF_ASC_NODE": 72.1168, "ARG_OF_PERICENTER": 126.7441, "MEAN_ANOMALY": 233.3913, "EPHEMERIS_TYPE": 0, "CLASSIFICATION_TYPE": "U", "NORAD_CAT_ID": 66708, "ELEMENT_SET_NO": 999, "REV_AT_EPOCH": 422, "BSTAR": 0.00036130623, "MEAN_MOTION_DOT": 7.326e-05, "MEAN_MOTION_DDOT": 0}, "tle": {"line1": "1 66708U 25276AU  25360.57362526  .00007326  00000+0  36131-3 0  9995", "line2": "2 66708  97.4376  72.1168 0001306 126.7441 233.3913 15.18212740  4228"}}, "geometry": {"type": "Point", "coordinates": [-109.92956937078357, -16.910462019706625]}}, {"type": "Feature", "properties": {"norad_id": 66709, "name": "FLOCK 4H-6", "group": "last-30-days", "lat": 6.481004857002358, "lon": -106.79156421783377, "alt_km": 512.2534177085627, "timestamp": "2025-12-26T19:22:37.605071+00:00", "meta": {"OBJECT_NAME": "FLOCK 4H-6", "OBJECT_ID": "2025-276AV", "EPOCH": "2025-12-26T13:52:10.474464", "MEAN_MOTION": 15.17962022, "ECCENTRICITY": 0.00029628, "INCLINATION": 97.4425, "RA_OF_ASC_NODE": 72.1319, "ARG_OF_PERICENTER": 192.7569, "MEAN_ANOMALY": 167.359, "EPHEMERIS_TYPE": 0, "CLASSIFICATION_TYPE": "U", "NORAD_CAT_ID": 66709, "ELEMENT_SET_NO": 999, "REV_AT_EPOCH": 422, "BSTAR": 0.00049329109, "MEAN_MOTION_DOT": 9.959e-05, "MEAN_MOTION_DDOT": 0}, "tle": {"line1": "1 66709U 25276AV  25360.57789901  .00009959  00000+0  49329-3 0  9993", "line2": "2 66709  97.4425  72.1319 0002962 192.7569 167.3590 15.17962022  4226"}}, "geometry": {"type": "Point", "coordinates": [-106.79156421783377, 6.481004857002358]}}, {"type": "Feature", "properties": {"norad_id": 66710, "name": "FLOCK 4H-7", "group": "last-30-days", "lat": 52.21522383144799, "lon": -97.98291004226715, "alt_km": 508.9633871714541, "timestamp": "2025-12-26T19:22:37.605083+00:00", "meta": {"OBJECT_NAME": "FLOCK 4H-7", "OBJECT_ID": "2025-276AW", "EPOCH": "2025-12-26T10:54:22.660416", "MEAN_MOTION": 15.1752849, "ECCENTRICITY": 0.00010088, "INCLINATION": 97.4383, "RA_OF_ASC_NODE": 71.9685, "ARG_OF_PERICENTER": 262.1322, "MEAN_ANOMALY": 97.9798, "EPHEMERIS_TYPE": 0, "CLASSIFICATION_TYPE": "U", "NORAD_CAT_ID": 66710, "ELEMENT_SET_NO": 999, "REV_AT_EPOCH": 420, "BSTAR": 0.00028156023, "MEAN_MOTION_DOT": 5.582e-05, "MEAN_MOTION_DDOT": 0}, "tle": {"line1": "1 66710U 25276AW  25360.45442894  .00005582  00000+0  28156-3 0  9992", "line2": "2 66710  97.4383  71.9685 0001008 262.1322  97.9798 15.17528490  4206"}}, "geometry": {"type": "Point", "coordinates": [-97.98291004226715, 52.21522383144799]}}, {"type": "Feature", "properties": {"norad_id": 66711, "name": "FLOCK 4H-8", "group": "last-30-days", "lat": 53.47791678756892, "lon": -97.49649424329326, "alt_km": 509.0564632966798, "timestamp": "2025-12-26T19:22:37.605093+00:00", "meta": {"OBJECT_NAME": "FLOCK 4H-8", "OBJECT_ID": "2025-276AX", "EPOCH": "2025-12-26T14:00:04.000032", "MEAN_MOTION": 15.17494919, "ECCENTRICITY": 0.00024289, "INCLINATION": 97.4423, "RA_OF_ASC_NODE": 72.1166, "ARG_OF_PERICENTER": 242.7309, "MEAN_ANOMALY": 100.1427, "EPHEMERIS_TYPE": 0, "CLASSIFICATION_TYPE": "U", "NORAD_CAT_ID": 66711, "ELEMENT_SET_NO": 999, "REV_AT_EPOCH": 222, "BSTAR": 0.0042709578, "MEAN_MOTION_DOT": 0.00086479, "MEAN_MOTION_DDOT": 0}, "tle": {"line1": "1 66711U 25276AX  25360.58337963  .00086479  00000+0  42710-2 0  9992", "line2": "2 66711  97.4423  72.1166 0002428 242.7309 100.1427 15.17494919  2229"}}, "geometry": {"type": "Point", "coordinates": [-97.49649424329326, 53.47791678756892]}}, {"type": "Feature", "properties": {"norad_id": 66712, "name": "FLOCK 4H-9", "group": "last-30-days", "lat": 7.452912152576353, "lon": -106.6657182987186, "alt_km": 512.2237858130366, "timestamp": "2025-12-26T19:22:37.605106+00:00", "meta": {"OBJECT_NAME": "FLOCK 4H-9", "OBJECT_ID": "2025-276AY", "EPOCH": "2025-12-26T13:52:25.855392", "MEAN_MOTION": 15.17964831, "ECCENTRICITY": 0.00029786, "INCLINATION": 97.4416, "RA_OF_ASC_NODE": 72.1291, "ARG_OF_PERICENTER": 200.6685, "MEAN_ANOMALY": 159.4429, "EPHEMERIS_TYPE": 0, "CLASSIFICATION_TYPE": "U", "NORAD_CAT_ID": 66712, "ELEMENT_SET_NO": 999, "REV_AT_EPOCH": 422, "BSTAR": 0.00036623339, "MEAN_MOTION_DOT": 7.375e-05, "MEAN_MOTION_DDOT": 0}, "tle": {"line1": "1 66712U 25276AY  25360.57807703  .00007375  00000+0  36623-3 0  9991", "line2": "2 66712  97.4416  72.1291 0002978 200.6685 159.4429 15.17964831  4227"}}, "geometry": {"type": "Point", "coordinates": [-106.6657182987186, 7.452912152576353]}}, {"type": "Feature", "properties": {"norad_id": 66713, "name": "FLOCK 4H-10", "group": "last-30-days", "lat": 72.95623408422082, "lon": -82.46049619526673, "alt_km": 508.62179865245434, "timestamp": "2025-12-26T19:22:37.605116+00:00", "meta": {"OBJECT_NAME": "FLOCK 4H-10", "OBJECT_ID": "2025-276AZ", "EPOCH": "2025-12-26T12:34:59.787840", "MEAN_MOTION": 15.17328102, "ECCENTRICITY": 0.00036818, "INCLINATION": 97.439, "RA_OF_ASC_NODE": 72.0345, "ARG_OF_PERICENTER": 238.4407, "MEAN_ANOMALY": 121.6468, "EPHEMERIS_TYPE": 0, "CLASSIFICATION_TYPE": "U", "NORAD_CAT_ID": 66713, "ELEMENT_SET_NO": 999, "REV_AT_EPOCH": 421, "BSTAR": 0.00048633669, "MEAN_MOTION_DOT": 9.64e-05, "MEAN_MOTION_DDOT": 0}, "tle": {"line1": "1 66713U 25276AZ  25360.52430310  .00009640  00000+0  48634-3 0  9995", "line2": "2 66713  97.4390  72.0345 0003681 238.4407 121.6468 15.17328102  4219"}}, "geometry": {"type": "Point", "coordinates": [-82.46049619526673, 72.95623408422082]}}, {"type": "Feature", "properties": {"norad_id": 66714, "name": "FLOCK 4H-11", "group": "last-30-days", "lat": 37.961231789878774, "lon": -101.80812733029465, "alt_km": 510.04952048790165, "timestamp": "2025-12-26T19:22:37.605126+00:00", "meta": {"OBJECT_NAME": "FLOCK 4H-11", "OBJECT_ID": "2025-276BA", "EPOCH": "2025-12-26T14:00:31.694688", "MEAN_MOTION": 15.1787761, "ECCENTRICITY": 0.00020631, "INCLINATION": 97.4407, "RA_OF_ASC_NODE": 72.1197, "ARG_OF_PERICENTER": 254.3004, "MEAN_ANOMALY": 105.8002, "EPHEMERIS_TYPE": 0, "CLASSIFICATION_TYPE": "U", "NORAD_CAT_ID": 66714, "ELEMENT_SET_NO": 999, "REV_AT_EPOCH": 422, "BSTAR": 0.00059030438, "MEAN_MOTION_DOT": 0.00011904, "MEAN_MOTION_DDOT": 0}, "tle": {"line1": "1 66714U 25276BA  25360.58370017  .00011904  00000+0  59030-3 0  9997", "line2": "2 66714  97.4407  72.1197 0002063 254.3004 105.8002 15.17877610  4220"}}, "geometry": {"type": "Point", "coordinates": [-101.80812733029465, 37.961231789878774]}}, {"type": "Feature", "properties": {"norad_id": 66715, "name": "FLOCK 4H-12", "group": "last-30-days", "lat": -6.148743259669143, "lon": -108.4655998732937, "alt_km": 515.1108613312372, "timestamp": "2025-12-26T19:22:37.605136+00:00", "meta": {"OBJECT_NAME": "FLOCK 4H-12", "OBJECT_ID": "2025-276BB", "EPOCH": "2025-12-26T13:48:50.925024", "MEAN_MOTION": 15.1811326, "ECCENTRICITY": 9.758e-05, "INCLINATION": 97.4384, "RA_OF_ASC_NODE": 72.113, "ARG_OF_PERICENTER": 251.7316, "MEAN_ANOMALY": 108.3812, "EPHEMERIS_TYPE": 0, "CLASSIFICATION_TYPE": "U", "NORAD_CAT_ID": 66715, "ELEMENT_SET_NO": 999, "REV_AT_EPOCH": 453, "BSTAR": -5.7030685e-05, "MEAN_MOTION_DOT": -1.228e-05, "MEAN_MOTION_DDOT": 0}, "tle": {"line1": "1 66715U 25276BB  25360.57558941 -.00001228  00000+0 -57031-4 0  9991", "line2": "2 66715  97.4384  72.1130 0000975 251.7316 108.3812 15.18113260  4535"}}, "geometry": {"type": "Point", "coordinates": [-108.4655998732937, -6.148743259669143]}}, {"type": "Feature", "properties": {"norad_id": 66716, "name": "FLOCK 4H-13", "group": "last-30-days", "lat": -19.38799940896427, "lon": -110.27591672572889, "alt_km": 514.9027873959885, "timestamp": "2025-12-26T19:22:37.605146+00:00", "meta": {"OBJECT_NAME": "FLOCK 4H-13", "OBJECT_ID": "2025-276BC", "EPOCH": "2025-12-26T12:10:31.971936", "MEAN_MOTION": 15.18522142, "ECCENTRICITY": 0.00016107, "INCLINATION": 97.4402, "RA_OF_ASC_NODE": 72.0648, "ARG_OF_PERICENTER": 152.8729, "MEAN_ANOMALY": 207.259, "EPHEMERIS_TYPE": 0, "CLASSIFICATION_TYPE": "U", "NORAD_CAT_ID": 66716, "ELEMENT_SET_NO": 999, "REV_AT_EPOCH": 421, "BSTAR": -0.0031584752, "MEAN_MOTION_DOT": -0.00064631, "MEAN_MOTION_DDOT": 0}, "tle": {"line1": "1 66716U 25276BC  25360.50731449 -.00064631  00000+0 -31585-2 0  9992", "line2": "2 66716  97.4402  72.0648 0001610 152.8729 207.2590 15.18522142  4216"}}, "geometry": {"type": "Point", "coordinates": [-110.27591672572889, -19.38799940896427]}}]}